{"type": "FeatureCollection", "features": [ {"type": "Feature", "properties": {"norad_id": 34141, "name": "COSMOS 2251 DEB", "group": "cosmos-2251-debris", "lat": -42.091263016463365, "lon": -129.86800644484825, "alt_km": 741.2317259415477, "timestamp": "2025-12-09T09:46:48.039470+00:00", "meta": {"OBJECT_NAME": "COSMOS 2251 DEB", "OBJECT_ID": "1993-036LN", "EPOCH": "2025-12-09T03:55:34.277952", "MEAN_MOTION": 14.49177654, "ECCENTRICITY": 0.0047615, "INCLINATION": 74.0108, "RA_OF_ASC_NODE": 35.5792, "ARG_OF_PERICENTER": 123.0311, "MEAN_ANOMALY": 268.5891, "EPHEMERIS_TYPE": 0, "CLASSIFICATION_TYPE": "U", "NORAD_CAT_ID": 34141, "ELEMENT_SET_NO": 999, "REV_AT_EPOCH": 87642, "BSTAR": 0.0018171, "MEAN_MOTION_DOT": 6.996e-05, "MEAN_MOTION_DDOT": 0}, "tle": {"line1": "1 34141U 93036LN  25343.16359118  .00006996  00000+0  18171-2 0  9994", "line2": "2 34141  74.0108  35.5792 0047615 123.0311 268.5891 14.49177654876424"}}, "geometry": {"type": "Point", "coordinates": [-129.86800644484825, -42.091263016463365]}}, {"type": "Feature", "properties": {"norad_id": 34270, "name": "COSMOS 2251 DEB", "group": "cosmos-2251-debris", "lat": -11.066773995172156, "lon": -50.16636042240502, "alt_km": 696.4779952947611, "timestamp": "2025-12-09T09:46:48.039480+00:00", "meta": {"OBJECT_NAME": "COSMOS 2251 DEB", "OBJECT_ID": "1993-036LQ", "EPOCH": "2025-12-09T00:00:00.084672", "MEAN_MOTION": 14.65118446, "ECCENTRICITY": 0.004776, "INCLINATION": 74.0117, "RA_OF_ASC_NODE": 313.8332, "ARG_OF_PERICENTER": 107.7355, "MEAN_ANOMALY": 252.9035, "EPHEMERIS_TYPE": 0, "CLASSIFICATION_TYPE": "U", "NORAD_CAT_ID": 34270, "ELEMENT_SET_NO": 999, "REV_AT_EPOCH": 89041, "BSTAR": 0.00067062, "MEAN_MOTION_DOT": 3.634e-05, "MEAN_MOTION_DDOT": 0}, "tle": {"line1": "1 34270U 93036LQ  25343.00000098  .00003634  00000+0  67062-3 0  9990", "line2": "2 34270  74.0117 313.8332 0047760 107.7355 252.9035 14.65118446890411"}}, "geometry": {"type": "Point", "coordinates": [-50.16636042240502, -11.066773995172156]}}, {"type": "Feature", "properties": {"norad_id": 34271, "name": "COSMOS 2251 DEB", "group": "cosmos-2251-debris", "lat": -45.99964605594883, "lon": 43.06419649497651, "alt_km": 653.9143050726934, "timestamp": "2025-12-09T09:46:48.039490+00:00", "meta": {"OBJECT_NAME": "COSMOS 2251 DEB", "OBJECT_ID": "1993-036LR", "EPOCH": "2025-12-09T01:10:05.329920", "MEAN_MOTION": 14.70628526, "ECCENTRICITY": 0.0019313, "INCLINATION": 74.0195, "RA_OF_ASC_NODE": 206.4987, "ARG_OF_PERICENTER": 261.1115, "MEAN_ANOMALY": 228.4183, "EPHEMERIS_TYPE": 0, "CLASSIFICATION_TYPE": "U", "NORAD_CAT_ID": 34271, "ELEMENT_SET_NO": 999, "REV_AT_EPOCH": 88180, "BSTAR": 0.0020534, "MEAN_MOTION_DOT": 0.0001252, "MEAN_MOTION_DDOT": 0}, "tle": {"line1": "1 34271U 93036LR  25343.04867280  .00012520  00000+0  20534-2 0  9995", "line2": "2 34271  74.0195 206.4987 0019313 261.1115 228.4183 14.70628526881809"}}, "geometry": {"type": "Point", "coordinates": [43.06419649497651, -45.99964605594883]}}, {"type": "Feature", "properties": {"norad_id": 34273, "name": "COSMOS 2251 DEB", "group": "cosmos-2251-debris", "lat": 1.7847799607469976, "lon": 94.30992723327479, "alt_km": 699.8118116485184, "timestamp": "2025-12-09T09:46:48.039501+00:00", "meta": {"OBJECT_NAME": "COSMOS 2251 DEB", "OBJECT_ID": "1993-036LT", "EPOCH": "2025-12-09T00:27:10.054368", "MEAN_MOTION": 14.61165961, "ECCENTRICITY": 0.0014255, "INCLINATION": 74.036, "RA_OF_ASC_NODE": 94.5415, "ARG_OF_PERICENTER": 220.1005, "MEAN_ANOMALY": 258.3189, "EPHEMERIS_TYPE": 0, "CLASSIFICATION_TYPE": "U", "NORAD_CAT_ID": 34273, "ELEMENT_SET_NO": 999, "REV_AT_EPOCH": 88567, "BSTAR": 0.0013234, "MEAN_MOTION_DOT": 6.501e-05, "MEAN_MOTION_DDOT": 0}, "tle": {"line1": "1 34273U 93036LT  25343.01886637  .00006501  00000+0  13234-2 0  9992", "line2": "2 34273  74.0360  94.5415 0014255 220.1005 258.3189 14.61165961885676"}}, "geometry": {"type": "Point", "coordinates": [94.30992723327479, 1.7847799607469976]}}, {"type": "Feature", "properties": {"norad_id": 34274, "name": "COSMOS 2251 DEB", "group": "cosmos-2251-debris", "lat": 39.49556636603059, "lon": 88.6636448737261, "alt_km": 690.2917659488867, "timestamp": "2025-12-09T09:46:48.039511+00:00", "meta": {"OBJECT_NAME": "COSMOS 2251 DEB", "OBJECT_ID": "1993-036LU", "EPOCH": "2025-12-08T17:46:00.338016", "MEAN_MOTION": 14.64704311, "ECCENTRICITY": 0.00222691, "INCLINATION": 74.0048, "RA_OF_ASC_NODE": 76.273, "ARG_OF_PERICENTER": 226.5258, "MEAN_ANOMALY": 258.1991, "EPHEMERIS_TYPE": 0, "CLASSIFICATION_TYPE": "U", "NORAD_CAT_ID": 34274, "ELEMENT_SET_NO": 999, "REV_AT_EPOCH": 88617, "BSTAR": 0.0018467108, "MEAN_MOTION_DOT": 9.85e-05, "MEAN_MOTION_DDOT": 0}, "tle": {"line1": "1 34274U 93036LU  25342.74028169  .00009850  00000+0  18467-2 0  9993", "line2": "2 34274  74.0048  76.2730 0022269 226.5258 258.1991 14.64704311886177"}}, "geometry": {"type": "Point", "coordinates": [88.6636448737261, 39.49556636603059]}}, {"type": "Feature", "properties": {"norad_id": 34276, "name": "COSMOS 2251 DEB", "group": "cosmos-2251-debris", "lat": 64.14564724450267, "lon": 127.89805643367767, "alt_km": 711.3953683461195, "timestamp": "2025-12-09T09:46:48.039522+00:00", "meta": {"OBJECT_NAME": "COSMOS 2251 DEB", "OBJECT_ID": "1993-036LW", "EPOCH": "2025-12-08T13:45:23.227200", "MEAN_MOTION": 14.57181412, "ECCENTRICITY": 0.0022666, "INCLINATION": 74.0239, "RA_OF_ASC_NODE": 93.2422, "ARG_OF_PERICENTER": 240.1519, "MEAN_ANOMALY": 134.4269, "EPHEMERIS_TYPE": 0, "CLASSIFICATION_TYPE": "U", "NORAD_CAT_ID": 34276, "ELEMENT_SET_NO": 999, "REV_AT_EPOCH": 88532, "BSTAR": 0.0013561, "MEAN_MOTION_DOT": 6.118e-05, "MEAN_MOTION_DDOT": 0}, "tle": {"line1": "1 34276U 93036LW  25342.57318550  .00006118  00000+0  13561-2 0  9996", "line2": "2 34276  74.0239  93.2422 0022666 240.1519 134.4269 14.57181412885324"}}, "geometry": {"type": "Point", "coordinates": [127.89805643367767, 64.14564724450267]}}, {"type": "Feature", "properties": {"norad_id": 34297, "name": "COSMOS 2251 DEB", "group": "cosmos-2251-debris", "lat": -30.468462396248775, "lon": -79.33544804144104, "alt_km": 764.8374586482605, "timestamp": "2025-12-09T09:46:48.039532+00:00", "meta": {"OBJECT_NAME": "COSMOS 2251 DEB", "OBJECT_ID": "1993-036MT", "EPOCH": "2025-12-08T20:42:34.839936", "MEAN_MOTION": 14.36624354, "ECCENTRICITY": 0.00171173, "INCLINATION": 74.0484, "RA_OF_ASC_NODE": 291.3511, "ARG_OF_PERICENTER": 0.8234, "MEAN_ANOMALY": 32.1118, "EPHEMERIS_TYPE": 0, "CLASSIFICATION_TYPE": "U", "NORAD_CAT_ID": 34297, "ELEMENT_SET_NO": 999, "REV_AT_EPOCH": 88009, "BSTAR": 0.0002983113, "MEAN_MOTION_DOT": 8.53e-06, "MEAN_MOTION_DDOT": 0}, "tle": {"line1": "1 34297U 93036MT  25342.86290324  .00000853  00000+0  29831-3 0  9997", "line2": "2 34297  74.0484 291.3511 0017117   0.8234  32.1118 14.36624354880099"}}, "geometry": {"type": "Point", "coordinates": [-79.33544804144104, -30.468462396248775]}}, {"type": "Feature", "properties": {"norad_id": 34299, "name": "COSMOS 2251 DEB", "group": "cosmos-2251-debris", "lat": 58.30420285676721, "lon": 9.830476047194505, "alt_km": 347.26518984565064, "timestamp": "2025-12-09T09:46:48.039543+00:00", "meta": {"OBJECT_NAME": "COSMOS 2251 DEB", "OBJECT_ID": "1993-036MV", "EPOCH": "2025-12-08T10:31:11.726688", "MEAN_MOTION": 15.65574318, "ECCENTRICITY": 0.002253, "INCLINATION": 73.9791, "RA_OF_ASC_NODE": 344.2835, "ARG_OF_PERICENTER": 57.969, "MEAN_ANOMALY": 302.3715, "EPHEMERIS_TYPE": 0, "CLASSIFICATION_TYPE": "U", "NORAD_CAT_ID": 34299, "ELEMENT_SET_NO": 999, "REV_AT_EPOCH": 88943, "BSTAR": 0.0060259825, "MEAN_MOTION_DOT": 0.00662605, "MEAN_MOTION_DDOT": 0}, "tle": {"line1": "1 34299U 93036MV  25342.43833017  .00662605  00000+0  60260-2 0  9993", "line2": "2 34299  73.9791 344.2835 0022530  57.9690 302.3715 15.65574318889430"}}, "geometry": {"type": "Point", "coordinates": [9.830476047194505, 58.30420285676721]}}, {"type": "Feature", "properties": {"norad_id": 34301, "name": "COSMOS 2251 DEB", "group": "cosmos-2251-debris", "lat": 57.746053593170586, "lon": -159.64127362282593, "alt_km": 618.0930891279277, "timestamp": "2025-12-09T09:46:48.039553+00:00", "meta": {"OBJECT_NAME": "COSMOS 2251 DEB", "OBJECT_ID": "1993-036MX", "EPOCH": "2025-12-08T22:43:16.047264", "MEAN_MOTION": 14.84249775, "ECCENTRICITY": 0.00117928, "INCLINATION": 74.0055, "RA_OF_ASC_NODE": 174.2386, "ARG_OF_PERICENTER": 233.3395, "MEAN_ANOMALY": 247.2401, "EPHEMERIS_TYPE": 0, "CLASSIFICATION_TYPE": "U", "NORAD_CAT_ID": 34301, "ELEMENT_SET_NO": 999, "REV_AT_EPOCH": 88344, "BSTAR": 0.0032237404, "MEAN_MOTION_DOT": 0.00027112, "MEAN_MOTION_DDOT": 0}, "tle": {"line1": "1 34301U 93036MX  25342.94671351  .00027112  00000+0  32237-2 0  9995", "line2": "2 34301  74.0055 174.2386 0011792 233.3395 247.2401 14.84249775883441"}}, "geometry": {"type": "Point", "coordinates": [-159.64127362282593, 57.746053593170586]}}, {"type": "Feature", "properties": {"norad_id": 34302, "name": "COSMOS 2251 DEB", "group": "cosmos-2251-debris", "lat": -28.186816865384824, "lon": 120.93743806393203, "alt_km": 712.1041333418971, "timestamp": "2025-12-09T09:46:48.039564+00:00", "meta": {"OBJECT_NAME": "COSMOS 2251 DEB", "OBJECT_ID": "1993-036MY", "EPOCH": "2025-12-08T21:09:45.855072", "MEAN_MOTION": 14.39306808, "ECCENTRICITY": 0.00785386, "INCLINATION": 74.1781, "RA_OF_ASC_NODE": 130.6398, "ARG_OF_PERICENTER": 346.9995, "MEAN_ANOMALY": 141.0251, "EPHEMERIS_TYPE": 0, "CLASSIFICATION_TYPE": "U", "NORAD_CAT_ID": 34302, "ELEMENT_SET_NO": 999, "REV_AT_EPOCH": 87665, "BSTAR": 0.00081276817, "MEAN_MOTION_DOT": 2.592e-05, "MEAN_MOTION_DDOT": 0}, "tle": {"line1": "1 34302U 93036MY  25342.88178073  .00002592  00000+0  81277-3 0  9996", "line2": "2 34302  74.1781 130.6398 0078538 346.9995 141.0251 14.39306808876656"}}, "geometry": {"type": "Point", "coordinates": [120.93743806393203, -28.186816865384824]}}]}